NORAD_CAT_ID,OBJECT_NAME,OBJECT_TYPE,EPOCH,MEAN_MOTION,ECCENTRICITY,INCLINATION,RA_OF_ASC_NODE,ARG_OF_PERICENTER,MEAN_ANOMALY,BSTAR,MEAN_MOTION_DOT,MEAN_MOTION_DDOT,TLE_LINE0,TLE_LINE1,TLE_LINE2,SEMIMAJOR_AXIS,PERIOD,APOGEE,PERIGEE,DECAYED
50194.0,STARLINK-3269,PAYLOAD,2022-08-16 01:53:34,15.08833803,0.0001389,53.219,322.2743,58.272,301.8407,9.8793e-05,1.284e-05,0.0,0 STARLINK-3269,1 50194U 21125AQ  22228.07887025  .00001284  00000-0  98793-4 0  9998,2 50194  53.2190 322.2743 0001389  58.2720 301.8407 15.08833803 39755,6917.899,95.438,540.725,538.803,0.0
50194.0,STARLINK-3269,PAYLOAD,2022-08-16 11:25:52,15.08844664,0.0001414,53.2189,320.4904,56.5522,303.5605,0.00014556,2.03e-05,0.0,0 STARLINK-3269,1 50194U 21125AQ  22228.47630367  .00002030  00000-0  14556-3 0  9991,2 50194  53.2189 320.4904 0001414  56.5522 303.5605 15.08844664 39815,6917.866,95.437,540.7090000000002,538.753,0.0
50194.0,STARLINK-3269,PAYLOAD,2022-08-16 16:12:02,15.08845193,0.0001441999999999,53.2189,319.5986,55.5916,304.5213,0.00012037,1.629e-05,0.0,0 STARLINK-3269,1 50194U 21125AQ  22228.67502374  .00001629  00000-0  12037-3 0  9994,2 50194  53.2189 319.5986 0001442  55.5916 304.5213 15.08845193 40378,6917.865,95.437,540.727,538.732,0.0
50194.0,STARLINK-3269,PAYLOAD,2022-08-17 03:19:44,15.0883959,0.0001361999999999,53.2185,317.5153,64.7552,295.3581,1.872e-05,1e-07,0.0,0 STARLINK-3269,1 50194U 21125AQ  22229.13870895  .00000010  00000-0  18720-4 0  9991,2 50194  53.2185 317.5153 0001362  64.7552 295.3581 15.08839590 39914,6917.882,95.438,540.689,538.804,0.0
50194.0,STARLINK-3269,PAYLOAD,2022-08-17 11:16:40,15.08834565,0.0001513,53.2183,316.0287,72.592,287.5237,0.00021746,3.174e-05,0.0,0 STARLINK-3269,1 50194U 21125AQ  22229.46990870  .00003174  00000-0  21746-3 0  9998,2 50194  53.2183 316.0287 0001513  72.5920 287.5237 15.08834565 40491,6917.897,95.438,540.809,538.715,0.0
50194.0,STARLINK-3269,PAYLOAD,2022-08-18 06:21:17,15.08840535,0.0001512,53.2179,312.4604,67.4692,292.646,2.9954e-05,1.89e-06,0.0,0 STARLINK-3269,1 50194U 21125AQ  22230.26478831  .00000189  00000-0  29954-4 0  9999,2 50194  53.2179 312.4604 0001512  67.4692 292.6460 15.08840535 40081,6917.879,95.438,540.79,538.698,0.0
50194.0,STARLINK-3269,PAYLOAD,2022-08-18 11:07:26,15.08844047,0.0001513,53.2182,311.5695,60.9639,299.1505,4.8838e-05,4.89e-06,0.0,0 STARLINK-3269,1 50194U 21125AQ  22230.46350554  .00000489  00000-0  48838-4 0  9997,2 50194  53.2182 311.5695 0001513  60.9639 299.1505 15.08844047 40641,6917.868,95.437,540.78,538.686,0.0
50194.0,STARLINK-3269,PAYLOAD,2022-08-19 10:58:14,15.08838668,0.0001322,53.2186,307.1082,61.8338,298.2788,3.0184e-05,1.93e-06,0.0,0 STARLINK-3269,1 50194U 21125AQ  22231.45710788  .00000193  00000-0  30184-4 0  9993,2 50194  53.2186 307.1082 0001322  61.8338 298.2788 15.08838668 40791,6917.884,95.438,540.664,538.835,0.0
50194.0,STARLINK-3269,PAYLOAD,2022-08-20 02:52:06,15.08829316,0.0001626,53.218,304.1361,50.6748,309.4388,1.8819e-05,1.1e-07,0.0,0 STARLINK-3269,1 50194U 21125AQ  22232.11951819  .00000011  00000-0  18819-4 0  9999,2 50194  53.2180 304.1361 0001626  50.6748 309.4388 15.08829316 40364,6917.913000000001,95.438,540.903,538.653,0.0
50194.0,STARLINK-3269,PAYLOAD,2022-08-20 10:49:01,15.08834995,0.0001661,53.2182,302.6499,49.2882,310.8254,3.4584e-05,2.62e-06,0.0,0 STARLINK-3269,1 50194U 21125AQ  22232.45071624  .00000262  00000-0  34584-4 0  9998,2 50194  53.2182 302.6499 0001661  49.2882 310.8254 15.08834995 40944,6917.896,95.438,540.91,538.612,0.0
50194.0,STARLINK-3269,PAYLOAD,2022-08-20 21:56:43,15.08838451,0.0001517,53.2181,300.5674,55.041,305.0724,4.8764e-05,4.88e-06,0.0,0 STARLINK-3269,1 50194U 21125AQ  22232.91439366  .00000488  00000-0  48764-4 0  9995,2 50194  53.2181 300.5674 0001517  55.0410 305.0724 15.08838451 40485,6917.885,95.438,540.8,538.701,0.0
50194.0,STARLINK-3269,PAYLOAD,2022-08-21 10:39:47,15.08855022,0.0001738,53.218,298.1887,93.0493,267.0698,-6.3802e-05,-1.304e-05,0.0,0 STARLINK-3269,1 50194U 21125AQ  22233.44430472 -.00001304  00000-0 -63802-4 0  9993,2 50194  53.2180 298.1887 0001738  93.0493 267.0698 15.08855022 40569,6917.834,95.437,540.9019999999998,538.497,0.0
50194.0,STARLINK-3269,PAYLOAD,2022-08-22 02:33:40,15.08829038,0.0001585,53.2177,295.215,55.8318,304.2824,6.0095e-05,6.68e-06,0.0,0 STARLINK-3269,1 50194U 21125AQ  22234.10672443  .00000668  00000-0  60095-4 0  9994,2 50194  53.2177 295.2150 0001585  55.8318 304.2824 15.08829038 40662,6917.9140000000025,95.438,540.875,538.682,0.0
50194.0,STARLINK-3269,PAYLOAD,2022-08-22 07:19:50,15.08831593,0.0001554,53.2179,294.3228,55.9351,304.1789,7.445100000000001e-05,8.97e-06,0.0,0 STARLINK-3269,1 50194U 21125AQ  22234.30544336  .00000897  00000-0  74451-4 0  9990,2 50194  53.2179 294.3228 0001554  55.9351 304.1789 15.08831593 41225,6917.906,95.438,540.846,538.696,0.0
50194.0,STARLINK-3269,PAYLOAD,2022-08-22 10:30:36,15.08831478,0.0001543,53.2177,293.728,54.428,305.6856,7.2844e-05,8.71e-06,0.0,0 STARLINK-3269,1 50194U 21125AQ  22234.43792410  .00000871  00000-0  72844-4 0  9998,2 50194  53.2177 293.7280 0001543  54.4280 305.6856 15.08831478 41242,6917.906,95.438,540.839,538.7040000000002,0.0
50194.0,STARLINK-3269,PAYLOAD,2022-08-23 02:24:27,15.08838292,0.0001568,53.2177,290.7542,54.0313,306.0825,2.7787e-05,1.54e-06,0.0,0 STARLINK-3269,1 50194U 21125AQ  22235.10032213  .00000154  00000-0  27787-4 0  9991,2 50194  53.2177 290.7542 0001568  54.0313 306.0825 15.08838292 40814,6917.886,95.438,540.835,538.6659999999998,0.0
50194.0,STARLINK-3269,PAYLOAD,2022-08-23 10:21:23,15.08839268,0.0001553,53.2176,289.2672,55.0793,305.0345,2.9568e-05,1.83e-06,0.0,0 STARLINK-3269,1 50194U 21125AQ  22235.43152067  .00000183  00000-0  29568-4 0  9998,2 50194  53.2176 289.2672 0001553  55.0793 305.0345 15.08839268 41391,6917.8830000000025,95.438,540.822,538.673,0.0
50194.0,STARLINK-3269,PAYLOAD,2022-08-24 13:22:56,15.08840736,0.0001578,53.2175,284.2125,51.3485,308.7649,0.00013152,1.806e-05,0.0,0 STARLINK-3269,1 50194U 21125AQ  22236.55759886  .00001806  00000-0  13152-3 0  9998,2 50194  53.2175 284.2125 0001578  51.3485 308.7649 15.08840736 41032,6917.878000000002,95.438,540.835,538.651,0.0
50194.0,STARLINK-3269,PAYLOAD,2022-08-25 03:41:25,15.08832922,0.0001656,53.2173,281.536,49.552,310.5616,6.6922e-06,-1.82e-06,0.0,0 STARLINK-3269,1 50194U 21125AQ  22237.15376837 -.00000182  00000-0  66922-5 0  9998,2 50194  53.2173 281.5360 0001656  49.5520 310.5616 15.08832922 41120,6917.901999999999,95.438,540.913,538.621,0.0
50194.0,STARLINK-3269,PAYLOAD,2022-08-25 10:02:58,15.08830795,0.0001688,53.2172,280.3466,49.7306,310.3833,-1.7921e-05,-5.73e-06,0.0,0 STARLINK-3269,1 50194U 21125AQ  22237.41873111 -.00000573  00000-0 -17921-4 0  9993,2 50194  53.2172 280.3466 0001688  49.7306 310.3833 15.08830795 41699,6917.909000000002,95.438,540.941,538.606,0.0
50194.0,STARLINK-3269,PAYLOAD,2022-08-25 19:35:17,15.08832438,0.000172,53.2173,278.5625,49.6664,310.4479,-2.0761e-05,-6.18e-06,0.0,0 STARLINK-3269,1 50194U 21125AQ  22237.81617178 -.00000618  00000-0 -20761-4 0  9992,2 50194  53.2173 278.5625 0001720  49.6664 310.4479 15.08832438 41759,6917.904,95.438,540.9580000000002,538.5790000000002,0.0
50194.0,STARLINK-3269,PAYLOAD,2022-08-26 11:29:08,15.08834651,0.0001768,53.2172,275.589,50.9031,309.2118,-2.0794e-05,-6.19e-06,0.0,0 STARLINK-3269,1 50194U 21125AQ  22238.47857310 -.00000619  00000-0 -20794-4 0  9996,2 50194  53.2172 275.5890 0001768  50.9031 309.2118 15.08834651 41850,6917.897,95.438,540.985,538.539,0.0
50194.0,STARLINK-3269,PAYLOAD,2022-08-27 11:19:56,15.08832126,0.0001833,53.2172,271.1289,53.4804,306.6357,9.8478e-05,1.279e-05,0.0,0 STARLINK-3269,1 50194U 21125AQ  22239.47217713  .00001279  00000-0  98478-4 0  9999,2 50194  53.2172 271.1289 0001833  53.4804 306.6357 15.08832126 42002,6917.904,95.438,541.038,538.501,0.0
50194.0,STARLINK-3269,PAYLOAD,2022-08-28 01:38:24,15.08837774,0.0001844,53.2171,268.4523,54.0549,306.0614,0.00011518,1.545e-05,0.0,0 STARLINK-3269,1 50194U 21125AQ  22240.06833608  .00001545  00000-0  11518-3 0  9998,2 50194  53.2171 268.4523 0001844  54.0549 306.0614 15.08837774 41560,6917.887,95.438,541.028,538.477,0.0
50194.0,STARLINK-3269,PAYLOAD,2022-08-28 09:35:19,15.08840151,0.000188,53.2171,266.9656,53.3932,306.7233,0.00012418,1.689e-05,0.0,0 STARLINK-3269,1 50194U 21125AQ  22240.39953585  .00001689  00000-0  12418-3 0  9990,2 50194  53.2171 266.9656 0001880  53.3932 306.7233 15.08840151 42140,6917.88,95.438,541.045,538.444,0.0
50194.0,STARLINK-3269,PAYLOAD,2022-08-29 06:15:20,15.08846438,0.0001862,53.217,263.0994,55.6419,304.4749,0.00012676,1.73e-05,0.0,0 STARLINK-3269,1 50194U 21125AQ  22241.26065130  .00001730  00000-0  12676-3 0  9990,2 50194  53.2170 263.0994 0001862  55.6419 304.4749 15.08846438 41743,6917.861,95.437,541.014,538.438,0.0
50194.0,STARLINK-3269,PAYLOAD,2022-08-29 12:36:52,15.08849058,0.0001906999999999,53.2171,261.9101,55.2052,304.9120000000001,0.00013837,1.915e-05,0.0,0 STARLINK-3269,1 50194U 21125AQ  22241.52560929  .00001915  00000-0  13837-3 0  9990,2 50194  53.2171 261.9101 0001907  55.2052 304.9120 15.08849058 42313,6917.853,95.437,541.0369999999998,538.398,0.0
50194.0,STARLINK-3269,PAYLOAD,2022-08-30 07:41:29,15.08850896,0.0001937,53.2173,258.3424,53.1814,306.9355,0.00011094,1.478e-05,0.0,0 STARLINK-3269,1 50194U 21125AQ  22242.32048437  .00001478  00000-0  11094-3 0  9991,2 50194  53.2173 258.3424 0001937  53.1814 306.9355 15.08850896 41907,6917.847,95.437,541.052,538.372,0.0
50194.0,STARLINK-3269,PAYLOAD,2022-08-31 07:32:17,15.08842184,0.0002045999999999,53.2172,253.8831,52.1803,307.9374,-9.5322e-06,-4.4e-06,0.0,0 STARLINK-3269,1 50194U 21125AQ  22243.31408971 -.00000440  00000-0 -95322-5 0  9992,2 50194  53.2172 253.8831 0002046  52.1803 307.9374 15.08842184 42585,6917.874,95.437,541.154,538.323,0.0
